CCSDS_OMM_VERS,COMMENT,CREATION_DATE,ORIGINATOR,OBJECT_NAME,OBJECT_ID,CENTER_NAME,REF_FRAME,TIME_SYSTEM,MEAN_ELEMENT_THEORY,EPOCH,MEAN_MOTION,ECCENTRICITY,INCLINATION,RA_OF_ASC_NODE,ARG_OF_PERICENTER,MEAN_ANOMALY,EPHEMERIS_TYPE,CLASSIFICATION_TYPE,NORAD_CAT_ID,ELEMENT_SET_NO,REV_AT_EPOCH,BSTAR,MEAN_MOTION_DOT,MEAN_MOTION_DDOT,SEMIMAJOR_AXIS,PERIOD,APOAPSIS,PERIAPSIS,OBJECT_TYPE,RCS_SIZE,COUNTRY_CODE,LAUNCH_DATE,SITE,DECAY_DATE,FILE,GP_ID,TLE_LINE0,TLE_LINE1,TLE_LINE2
"3.0","GENERATED VIA SPACE-TRACK.ORG API","2026-03-25T17:29:05","18 SPCS","NOAA 7 DEB","1981-059B","EARTH","TEME","UTC","SGP4","2026-03-25T14:24:46.587744","14.66287908","0.00025136","98.9451","216.4596","232.6817","259.1611","0","U","12559","999","34549","0.00079248485000","0.00004316","0.0000000000000","7051.080","98.207","674.718","671.173","DEBRIS","SMALL","US","1981-06-23","AFWTR","","5096884","317003250","0 NOAA 7 DEB","1 12559U 81059B   26084.60053921  .00004316  00000-0  79248-3 0  9998","2 12559  98.9451 216.4596 0002514 232.6817 259.1611 14.66287908345495"
"3.0","GENERATED VIA SPACE-TRACK.ORG API","2026-03-25T17:29:05","18 SPCS","NOAA 7 DEB","1981-059C","EARTH","TEME","UTC","SGP4","2026-03-25T14:00:41.922720","14.64819265","0.00020523","98.9340","207.3682","197.0041","292.4346","0","U","12560","999","34525","0.00075890052000","0.00003996","0.0000000000000","7055.793","98.306","679.106","676.210","DEBRIS","SMALL","US","1981-06-23","AFWTR","","5096884","317002750","0 NOAA 7 DEB","1 12560U 81059C   26084.58381855  .00003996  00000-0  75890-3 0  9999","2 12560  98.9340 207.3682 0002052 197.0041 292.4346 14.64819265345253"
"3.0","GENERATED VIA SPACE-TRACK.ORG API","2026-03-25T17:29:05","18 SPCS","DELTA 1 DEB","1978-026FJ","EARTH","TEME","UTC","SGP4","2026-03-25T11:07:40.147104","14.65566339","0.00149348","98.4821","88.2384","206.2511","309.2519","0","U","13571","999","34123","0.00081933749000","0.00004403","0.0000000000000","7053.395","98.256","685.794","664.726","DEBRIS","SMALL","US","1978-03-05","AFWTR","","5096884","317003937","0 DELTA 1 DEB","1 13571U 78026FJ  26084.46365911  .00004403  00000-0  81934-3 0  9994","2 13571  98.4821  88.2384 0014935 206.2511 309.2519 14.65566339341233"
"3.0","GENERATED VIA SPACE-TRACK.ORG API","2026-03-25T17:29:05","18 SPCS","DELTA 1 DEB","1978-026FV","EARTH","TEME","UTC","SGP4","2026-03-25T11:43:00.059232","14.84825168","0.00266837","98.2479","101.3725","13.7381","346.4553","0","U","13826","999","28986","0.00082028152000","0.00006956","0.0000000000000","6992.272","96.981","632.795","595.479","DEBRIS","SMALL","US","1978-03-05","AFWTR","","5096884","317003477","0 DELTA 1 DEB","1 13826U 78026FV  26084.48819513  .00006956  00000-0  82028-3 0  9991","2 13826  98.2479 101.3725 0026684  13.7381 346.4553 14.84825168289869"
"3.0","GENERATED VIA SPACE-TRACK.ORG API","2026-03-25T17:29:05","18 SPCS","DELTA 1 DEB","1978-026FW","EARTH","TEME","UTC","SGP4","2026-03-25T07:20:34.105920","14.62664438","0.00620205","98.4203","98.8859","48.0486","327.2025","0","U","13827","999","26799","0.00050862024000","0.00002608","0.0000000000000","7062.721","98.450","728.389","640.782","DEBRIS","SMALL","US","1978-03-05","AFWTR","","5096884","317003978","0 DELTA 1 DEB","1 13827U 78026FW  26084.30595030  .00002608  00000-0  50862-3 0  9999","2 13827  98.4203  98.8859 0062021  48.0486 327.2025 14.62664438267995"
"3.0","GENERATED VIA SPACE-TRACK.ORG API","2026-03-25T04:32:27","18 SPCS","THORAD AGENA D DEB","1970-025NS","EARTH","TEME","UTC","SGP4","2026-03-24T17:00:59.785920","14.58915368","0.00450615","99.9764","257.8432","159.7628","200.5365","0","U","14466","999","30009","0.00178885150000","0.00008447","0.0000000000000","7074.815","98.703","728.561","664.800","DEBRIS","SMALL","US","1970-04-08","AFWTR","","5096755","316970365","0 THORAD AGENA D DEB","1 14466U 70025NS  26083.70902530  .00008447  00000-0  17889-2 0  9998","2 14466  99.9764 257.8432 0045062 159.7628 200.5365 14.58915368300096"
"3.0","GENERATED VIA SPACE-TRACK.ORG API","2026-03-25T17:29:05","18 SPCS","ARIANE 1 DEB","1986-019M","EARTH","TEME","UTC","SGP4","2026-03-25T12:13:17.256864","14.62283147","0.00632604","98.1978","107.2163","207.5841","316.8545","0","U","17117","999","4750","0.00093900685000","0.00004827","0.0000000000000","7063.949","98.476","730.500","641.127","DEBRIS","MEDIUM","FR","1986-02-22","FRGUI","","5096884","317004344","0 ARIANE 1 DEB","1 17117U 86019M   26084.50922751  .00004827  00000-0  93901-3 0  9998","2 17117  98.1978 107.2163 0063260 207.5841 316.8545 14.62283147 47501"
"3.0","GENERATED VIA SPACE-TRACK.ORG API","2026-03-25T17:29:05","18 SPCS","ARIANE 1 DEB","1986-019AG","EARTH","TEME","UTC","SGP4","2026-03-25T06:26:18.744864","14.67081611","0.00137091","98.0025","90.0112","168.8373","191.3138","0","U","17153","999","2298","0.00055173151000","0.00003054","0.0000000000000","7048.537","98.154","680.065","660.739","DEBRIS","MEDIUM","FR","1986-02-22","FRGUI","","5096884","317003851","0 ARIANE 1 DEB","1 17153U 86019AG  26084.26827251  .00003054  00000-0  55173-3 0  9990","2 17153  98.0025  90.0112 0013709 168.8373 191.3138 14.67081611 22984"
"3.0","GENERATED VIA SPACE-TRACK.ORG API","2026-03-25T17:29:05","18 SPCS","ARIANE 1 DEB","1986-019BR","EARTH","TEME","UTC","SGP4","2026-03-25T13:22:17.789376","14.61057101","0.00318333","98.4246","359.0013","357.6290","178.0403","0","U","17219","999","6261","0.00065066860000","0.00003168","0.0000000000000","7067.900","98.559","712.264","667.265","DEBRIS","SMALL","FR","1986-02-22","FRGUI","","5096884","317004358","0 ARIANE 1 DEB","1 17219U 86019BR  26084.55715034  .00003168  00000-0  65067-3 0  9999","2 17219  98.4246 359.0013 0031833 357.6290 178.0403 14.61057101 62610"
"3.0","GENERATED VIA SPACE-TRACK.ORG API","2026-03-25T04:32:27","18 SPCS","ARIANE 1 DEB","1986-019FQ","EARTH","TEME","UTC","SGP4","2026-03-24T16:46:51.242016","14.83529401","0.00344676","99.0507","348.2823","194.9039","165.1158","0","U","17429","999","5952","0.00112949150000","0.00009336","0.0000000000000","6996.343","97.066","642.322","594.093","DEBRIS","SMALL","FR","1986-02-22","FRGUI","","5096755","316970678","0 ARIANE 1 DEB","1 17429U 86019FQ  26083.69920419  .00009336  00000-0  11295-2 0  9997","2 17429  99.0507 348.2823 0034468 194.9039 165.1158 14.83529401 59520"
"3.0","GENERATED VIA SPACE-TRACK.ORG API","2026-03-25T17:29:05","18 SPCS","ARIANE 1 DEB","1986-019LU","EARTH","TEME","UTC","SGP4","2026-03-25T00:15:24.036768","14.55920159","0.00052397","98.0423","110.2381","14.1061","346.0282","0","U","17702","999","6678","0.00035204407000","0.00001503","0.0000000000000","7084.515","98.907","710.092","702.668","DEBRIS","SMALL","FR","1986-02-22","FRGUI","","5096884","317004398","0 ARIANE 1 DEB","1 17702U 86019LU  26084.01069487  .00001503  00000-0  35204-3 0  9992","2 17702  98.0423 110.2381 0005240  14.1061 346.0282 14.55920159 66788"
"3.0","GENERATED VIA SPACE-TRACK.ORG API","2026-03-25T17:29:05","18 SPCS","DELTA 1 DEB","1975-004HK","EARTH","TEME","UTC","SGP4","2026-03-25T09:19:01.820064","14.58164283","0.00483270","97.8766","61.0222","107.7037","252.9447","0","U","18475","999","13568","0.00011624302000","0.00000500","0.0000000000000","7077.245","98.754","733.312","664.907","DEBRIS","SMALL","US","1975-01-22","AFWTR","","5096884","317004471","0 DELTA 1 DEB","1 18475U 75004HK  26084.38821551  .00000500  00000-0  11624-3 0  9996","2 18475  97.8766  61.0222 0048327 107.7037 252.9447 14.58164283135680"
"3.0","GENERATED VIA SPACE-TRACK.ORG API","2026-03-25T17:29:05","18 SPCS","DELTA 1 DEB","1975-004HN","EARTH","TEME","UTC","SGP4","2026-03-25T06:25:11.508384","14.57723345","0.00617986","98.7457","12.1622","65.3193","86.7631","0","U","19105","999","17086","0.00017000144000","0.00000743","0.0000000000000","7078.672","98.784","744.282","656.791","DEBRIS","SMALL","US","1975-01-22","AFWTR","","5096884","317005072","0 DELTA 1 DEB","1 19105U 75004HN  26084.26749431  .00000743  00000-0  17000-3 0  9993","2 19105  98.7457  12.1622 0061799  65.3193  86.7631 14.57723345170865"
"3.0","GENERATED VIA SPACE-TRACK.ORG API","2026-03-25T17:29:05","18 SPCS","DELTA 1 DEB","1978-026HM","EARTH","TEME","UTC","SGP4","2026-03-25T00:20:10.946112","14.55664667","0.00178651","98.5764","106.4332","84.6934","305.5135","0","U","19359","999","49019","0.00066333258000","0.00002855","0.0000000000000","7085.344","98.924","719.867","694.551","DEBRIS","SMALL","US","1978-03-05","AFWTR","","5096884","317004615","0 DELTA 1 DEB","1 19359U 78026HM  26084.01401558  .00002855  00000-0  66333-3 0  9998","2 19359  98.5764 106.4332 0017865  84.6934 305.5135 14.55664667490193"
"3.0","GENERATED VIA SPACE-TRACK.ORG API","2026-03-25T17:29:05","18 SPCS","CZ-4 DEB","1990-081R","EARTH","TEME","UTC","SGP4","2026-03-25T07:20:05.358048","14.66909279","0.00157316","98.2451","93.4108","172.9175","197.3570","0","U","20853","999","84610","0.00126886470000","0.00007064","0.0000000000000","7049.089","98.166","682.044","659.865","DEBRIS","MEDIUM","PRC","1990-09-03","TSC","","5096884","317005319","0 CZ-4 DEB","1 20853U 90081R   26084.30561757  .00007064  00000-0  12689-2 0  9995","2 20853  98.2451  93.4108 0015732 172.9175 197.3570 14.66909279846108"
"3.0","GENERATED VIA SPACE-TRACK.ORG API","2026-03-25T17:29:05","18 SPCS","CZ-4 DEB","1990-081W","EARTH","TEME","UTC","SGP4","2026-03-25T13:24:28.980000","14.57644572","0.00283172","98.2512","124.0531","358.0024","135.0808","0","U","20858","999","85371","0.00074295469000","0.00003359","0.0000000000000","7078.927","98.790","720.837","680.746","DEBRIS","MEDIUM","PRC","1990-09-03","TSC","","5096884","317005320","0 CZ-4 DEB","1 20858U 90081W   26084.55866875  .00003359  00000-0  74295-3 0  9991","2 20858  98.2512 124.0531 0028317 358.0024 135.0808 14.57644572853715"
